STARLINK-1108
1 14944C 20001AG  21326.16445252  .00003827  00000-0  25652-3 0  3268
2 14944  53.0516 168.0050 0001994  70.7238 238.9595 15.06380028    12
